NORAD_CAT_ID,OBJECT_NAME,OBJECT_TYPE,EPOCH,MEAN_MOTION,ECCENTRICITY,INCLINATION,RA_OF_ASC_NODE,ARG_OF_PERICENTER,MEAN_ANOMALY,BSTAR,MEAN_MOTION_DOT,MEAN_MOTION_DDOT,TLE_LINE0,TLE_LINE1,TLE_LINE2,SEMIMAJOR_AXIS,PERIOD,APOGEE,PERIGEE,DECAYED
53280.0,STARLINK-4169,PAYLOAD,2023-03-08 06:00:00,15.11941293,0.0001507,53.2238,25.4848,76.636,85.262,-0.064,-0.01030618,0.0,0 STARLINK-4169,1 53280U 22086AQ  23067.25001157 -.01030618  00000-0 -64000-1 0  9997,2 53280  53.2238  25.4848 0001507  76.6360  85.2620 15.11941293 35989,6908.417,95.242,531.323,529.241,0.0
53280.0,STARLINK-4169,PAYLOAD,2023-03-08 22:00:00,15.10471024,0.0001576,53.2243,22.48,89.1465,101.5957,-0.072107,-0.01108223,0.0,0 STARLINK-4169,1 53280U 22086AQ  23067.91667824 -.01108223  00000-0 -72107-1 0  9994,2 53280  53.2243  22.4800 0001576  89.1465 101.5957 15.10471024  1304,6912.899,95.335,535.854,533.675,0.0
53280.0,STARLINK-4169,PAYLOAD,2023-03-09 00:00:00,15.1027519,0.0001416,53.2242,22.1056,90.5939,193.5057,-0.072665,-0.01110526,0.0,0 STARLINK-4169,1 53280U 22086AQ  23068.00001157 -.01110526  00000-0 -72665-1 0  9994,2 53280  53.2242  22.1056 0001416  90.5939 193.5057 15.10275190 36102,6913.497,95.347,536.341,534.383,0.0
53280.0,STARLINK-4169,PAYLOAD,2023-03-09 22:00:00,15.08818677,0.0001493,53.2204,17.9881,89.2235,138.3105,-5.1697e-05,-1.11e-05,0.0,0 STARLINK-4169,1 53280U 22086AQ  23068.91667824 -.00001110  00000-0 -51697-4 0  9995,2 53280  53.2204  17.9881 0001493  89.2235 138.3105 15.08818677 36232,6917.946,95.439,540.843,538.778,0.0
53280.0,STARLINK-4169,PAYLOAD,2023-03-10 00:00:00,15.0882714,0.000148,53.2201,17.6145,86.2178,234.2061,-0.0013434,-0.00021597,0.0,0 STARLINK-4169,1 53280U 22086AQ  23069.00001157 -.00021597  00000-0 -13434-2 0  9993,2 53280  53.2201  17.6145 0001480  86.2178 234.2061 15.08827140  1300,6917.92,95.438,540.809,538.761,0.0
53280.0,STARLINK-4169,PAYLOAD,2023-03-10 06:00:00,15.08809919,0.0001506,53.2192,16.494,97.6417,141.5238,-0.00030369,-5.114e-05,0.0,0 STARLINK-4169,1 53280U 22086AQ  23069.25001157 -.00005114  00000-0 -30369-3 0  9994,2 53280  53.2192  16.4940 0001506  97.6417 141.5238 15.08809919 36285,6917.972,95.439,540.879,538.795,0.0
53280.0,STARLINK-4169,PAYLOAD,2023-03-10 22:00:00,15.08856365,0.0001556,53.2189,13.5002,113.0202,149.2534,0.0011481,0.00018039,0.0,0 STARLINK-4169,1 53280U 22086AQ  23069.91667824  .00018039  00000-0  11481-2 0  9997,2 53280  53.2189  13.5002 0001556 113.0202 149.2534 15.08856365 36380,6917.83,95.437,540.772,538.619,0.0
53280.0,STARLINK-4169,PAYLOAD,2023-03-11 14:00:01,15.08804466,0.000131,53.2182,10.5076,96.7602,188.7982,0.0032286,0.0005142,0.0,0 STARLINK-4169,1 53280U 22086AQ  23070.58335648  .00051420  00000-0  32286-2 0  9995,2 53280  53.2182  10.5076 0001310  96.7602 188.7982 15.08804466  1304,6917.989,95.44,540.76,538.948,0.0
53280.0,STARLINK-4169,PAYLOAD,2023-03-11 22:00:00,15.08860175,0.0001297,53.2182,9.0116,98.6977,198.3558,0.00028312,4.223e-05,0.0,0 STARLINK-4169,1 53280U 22086AQ  23070.91667824  .00004223  00000-0  28312-3 0  9991,2 53280  53.2182   9.0116 0001297  98.6977 198.3558 15.08860175  1307,6917.819,95.436,540.581,538.786,0.0
53280.0,STARLINK-4169,PAYLOAD,2023-03-12 08:00:01,15.08814602,0.0001097,53.2175,7.1424,79.4258,322.1641,0.0019922,0.00031538,0.0,0 STARLINK-4169,1 53280U 22086AQ  23071.33334491  .00031538  00000-0  19922-2 0  9994,2 53280  53.2175   7.1424 0001097  79.4258 322.1641 15.08814602 36602,6917.958,95.439,540.582,539.064,0.0
53280.0,STARLINK-4169,PAYLOAD,2023-03-12 14:00:01,15.0881879,0.0001063,53.2176,6.0188,89.6365,230.638,0.0034988,0.00055804,0.0,0 STARLINK-4169,1 53280U 22086AQ  23071.58334491  .00055804  00000-0  34988-2 0  9992,2 53280  53.2176   6.0188 0001063  89.6365 230.6380 15.08818790  1307,6917.945,95.439,540.546,539.075,0.0
53280.0,STARLINK-4169,PAYLOAD,2023-03-13 00:00:00,15.08948464,0.0001101,53.2174,4.1493,74.8774,349.8929,-0.01158,-0.00180531,0.0,0 STARLINK-4169,1 53280U 22086AQ  23072.00001157 -.00180531  00000-0 -11580-1 0  9990,2 53280  53.2174   4.1493 0001101  74.8774 349.8929 15.08948464  1300,6917.549,95.431,540.175,538.652,0.0
53280.0,STARLINK-4169,PAYLOAD,2023-03-13 04:29:00,15.08860944,0.0001319,53.2195,3.3094,106.5042,253.6095,0.00015848,2.237e-05,0.0,0 STARLINK-4169,1 53280U 22086AQ  23072.18681649  .00002237  00000-0  15848-3 0  9996,2 53280  53.2195   3.3094 0001319 106.5042 253.6095 15.08860944 36730,6917.816,95.436,540.594,538.769,0.0
53280.0,STARLINK-4169,PAYLOAD,2023-03-14 04:19:50,15.08838621,0.0001181,53.2197,358.8482,103.9852,256.1271,-2.8129e-06,-3.33e-06,0.0,0 STARLINK-4169,1 53280U 22086AQ  23073.18043992 -.00000333  00000-0 -28129-5 0  9995,2 53280  53.2197 358.8482 0001181 103.9852 256.1271 15.08838621 36885,6917.885,95.438,540.567,538.933,0.0
53280.0,STARLINK-4169,PAYLOAD,2023-03-14 12:16:45,15.08844084,0.0001152,53.2197,357.3622,107.3329,252.7789,-0.00010309,-1.928e-05,0.0,0 STARLINK-4169,1 53280U 22086AQ  23073.51163841 -.00001928  00000-0 -10309-3 0  9998,2 53280  53.2197 357.3622 0001152 107.3329 252.7789 15.08844084 37102,6917.868,95.437,540.53,538.936,0.0
53280.0,STARLINK-4169,PAYLOAD,2023-03-15 00:59:48,15.0886519,0.0001309,53.2194,354.9826,101.8535,258.2604,-2.4593e-05,-6.8e-06,0.0,0 STARLINK-4169,1 53280U 22086AQ  23074.04153885 -.00000680  00000-0 -24593-4 0  9999,2 53280  53.2194 354.9826 0001309 101.8535 258.2604 15.08865190 37018,6917.803,95.436,540.574,538.763,0.0
53280.0,STARLINK-4169,PAYLOAD,2023-03-15 21:39:51,15.08836857,0.0001352,53.2197,351.1175,126.0562,234.0556,-5.0336e-06,-3.68e-06,0.0,0 STARLINK-4169,1 53280U 22086AQ  23074.90267665 -.00000368  00000-0 -50336-5 0  9994,2 53280  53.2197 351.1175 0001352 126.0562 234.0556 15.08836857 37313,6917.89,95.438,540.69,538.82,0.0
53280.0,STARLINK-4169,PAYLOAD,2023-03-16 04:01:22,15.08842554,0.0001131,53.22,349.9273,102.6499,257.4619,0.00023927,3.522e-05,0.0,0 STARLINK-4169,1 53280U 22086AQ  23075.16762478  .00003522  00000-0  23927-3 0  9992,2 53280  53.2200 349.9273 0001131 102.6499 257.4619 15.08842554 37181,6917.873,95.437,540.52,538.955,0.0
53280.0,STARLINK-4169,PAYLOAD,2023-03-16 21:30:39,15.08832989,0.0001447,53.2196,346.6577,110.4997,249.6151,-0.0001977,-3.432e-05,0.0,0 STARLINK-4169,1 53280U 22086AQ  23075.89628766 -.00003432  00000-0 -19770-3 0  9996,2 53280  53.2196 346.6577 0001447 110.4997 249.6151 15.08832989 37462,6917.902,95.438,540.768,538.766,0.0
53280.0,STARLINK-4169,PAYLOAD,2023-03-16 23:06:02,15.08833341,0.0001441,53.2194,346.3604,108.1137,252.0012,-0.00018922,-3.298e-05,0.0,0 STARLINK-4169,1 53280U 22086AQ  23075.96252747 -.00003298  00000-0 -18922-3 0  9994,2 53280  53.2194 346.3604 0001441 108.1137 252.0012 15.08833341 37302,6917.901,95.438,540.763,538.769,0.0
53280.0,STARLINK-4169,PAYLOAD,2023-03-17 00:41:25,15.08840463,0.0001335,53.2193,346.0629,111.3785,248.735,-0.00025024,-4.268e-05,0.0,0 STARLINK-4169,1 53280U 22086AQ  23076.02876499 -.00004268  00000-0 -25024-3 0  9997,2 53280  53.2193 346.0629 0001335 111.3785 248.7350 15.08840463 37481,6917.879,95.438,540.668,538.82,0.0
53280.0,STARLINK-4169,PAYLOAD,2023-03-17 18:10:39,15.08836394,0.0001151,53.2191,342.7915,103.5467,256.5653,-5.2443e-05,-1.122e-05,0.0,0 STARLINK-4169,1 53280U 22086AQ  23076.75740558 -.00001122  00000-0 -52443-4 0  9995,2 53280  53.2191 342.7915 0001151 103.5467 256.5653 15.08836394 37421,6917.891,95.438,540.553,538.96,0.0
53280.0,STARLINK-4169,PAYLOAD,2023-03-17 21:21:25,15.08842062,0.000114,53.2186,342.1953,95.3351,264.7771,-3.734e-05,-8.82e-06,0.0,0 STARLINK-4169,1 53280U 22086AQ  23076.88988150 -.00000882  00000-0 -37340-4 0  9992,2 53280  53.2186 342.1953 0001140  95.3351 264.7771 15.08842062 37611,6917.874,95.437,540.528,538.95,0.0
53280.0,STARLINK-4169,PAYLOAD,2023-03-18 03:42:57,15.08850931,0.0001241,53.2189,341.0062,102.0383,258.0748,7.2343e-05,8.64e-06,0.0,0 STARLINK-4169,1 53280U 22086AQ  23077.15483090  .00000864  00000-0  72343-4 0  9996,2 53280  53.2189 341.0062 0001241 102.0383 258.0748 15.08850931 37485,6917.847,95.437,540.57,538.853,0.0
53280.0,STARLINK-4169,PAYLOAD,2023-03-18 10:04:31,15.0883851,0.000118,53.2194,339.8182,94.9691,265.1436,-0.00011966,-2.192e-05,0.0,0 STARLINK-4169,1 53280U 22086AQ  23077.41980356 -.00002192  00000-0 -11966-3 0  9993,2 53280  53.2194 339.8182 0001180  94.9691 265.1436 15.08838510 37529,6917.885,95.438,540.566,538.934,0.0
53280.0,STARLINK-4169,PAYLOAD,2023-03-18 21:12:13,15.0883245,9.7e-05,53.2187,337.7357,82.3514,277.7588,4.8515e-05,4.84e-06,0.0,0 STARLINK-4169,1 53280U 22086AQ  23077.88348539  .00000484  00000-0  48515-4 0  9996,2 53280  53.2187 337.7357 0000970  82.3514 277.7588 15.08832450 37763,6917.903,95.438,540.44,539.097,0.0
53280.0,STARLINK-4169,PAYLOAD,2023-03-19 03:33:44,15.08848372,0.0001018,53.219,336.5474,96.0966,264.0142,0.00019179,2.767e-05,0.0,0 STARLINK-4169,1 53280U 22086AQ  23078.14843013  .00002767  00000-0  19179-3 0  9992,2 53280  53.2190 336.5474 0001018  96.0966 264.0142 15.08848372 37632,6917.855,95.437,540.424,539.016,0.0
53280.0,STARLINK-4169,PAYLOAD,2023-03-19 09:55:18,15.08833847,0.0001387,53.2192,335.3586,80.6951,279.4198,3.3928e-05,2.52e-06,0.0,0 STARLINK-4169,1 53280U 22086AQ  23078.41340594  .00000252  00000-0  33928-4 0  9994,2 53280  53.2192 335.3586 0001387  80.6951 279.4198 15.08833847 37673,6917.899,95.438,540.724,538.805,0.0
53280.0,STARLINK-4169,PAYLOAD,2023-03-19 21:03:00,15.08843254,0.0001252,53.2187,333.2773,84.6151,275.4984,-0.00012583,-2.29e-05,0.0,0 STARLINK-4169,1 53280U 22086AQ  23078.87708687 -.00002290  00000-0 -12583-3 0  9994,2 53280  53.2187 333.2773 0001252  84.6151 275.4984 15.08843254 37918,6917.87,95.437,540.602,538.869,0.0
53280.0,STARLINK-4169,PAYLOAD,2023-03-20 01:49:09,15.08843652,0.0001321,53.2197,332.386,85.191,274.9233,-3.9914e-05,-9.23e-06,0.0,0 STARLINK-4169,1 53280U 22086AQ  23079.07580323 -.00000923  00000-0 -39914-4 0  9991,2 53280  53.2197 332.3860 0001321  85.1910 274.9233 15.08843652 37779,6917.869,95.437,540.648,538.82,0.0
